[{"OBJECT_NAME":"STARLINK-3914","OBJECT_ID":"2022-049AR","EPOCH":"2026-03-09T05:33:37.799136","MEAN_MOTION":15.08836745,"ECCENTRICITY":0.00014321,"INCLINATION":53.2182,"RA_OF_ASC_NODE":51.1733,"ARG_OF_PERICENTER":93.4869,"MEAN_ANOMALY":266.6287,"EPHEMERIS_TYPE":0,"CLASSIFICATION_TYPE":"U","NORAD_CAT_ID":52490,"ELEMENT_SET_NO":999,"REV_AT_EPOCH":21232,"BSTAR":1.6192693e-5,"MEAN_MOTION_DOT":-3.0e-7,"MEAN_MOTION_DDOT":0},{"OBJECT_NAME":"DELTA 1 DEB","OBJECT_ID":"1977-065CB","EPOCH":"2026-03-09T00:48:12.317760","MEAN_MOTION":13.97995904,"ECCENTRICITY":0.05328634,"INCLINATION":29.0786,"RA_OF_ASC_NODE":354.7404,"ARG_OF_PERICENTER":16.4646,"MEAN_ANOMALY":345.2542,"EPHEMERIS_TYPE":0,"CLASSIFICATION_TYPE":"U","NORAD_CAT_ID":10250,"ELEMENT_SET_NO":999,"REV_AT_EPOCH":29411,"BSTAR":0.0013731025,"MEAN_MOTION_DOT":6.972e-5,"MEAN_MOTION_DDOT":0}]
